FENGYUN 1C DEB          
1 31148U 99025BHA 17344.54718517  .00000489  00000-0  17515-3 0  9992
2 31148  98.8172  96.5083 0158860 356.1612   3.8340 14.31941789555973
